,Name,Last Name,Zip Code,City,State,email,Phone Number,Company,Title,Last Contact,Budget,Agent
0,Nathanael,Alaniz,62263,Nashville,IL,J.Gilchrist@minimveniamquis.us,(865)920-8423,Industries Vision Bell,Supervisor Nursing Shift,2019-06-11,617173,Shmuel USN
1,Christina,Andrew,92530,Lake Elsinore,CA,Sammie.Sawyer@delenitdolore.eu,(304)230-4784,Solutions Bell Analysis,Laborer Concrete Mixing Plant,2019-06-03,56874,Spiegel Bechtel
2,Gregory,Gaskin,78741,Austin,TX,Rufus.Cothran@exnulla.tv,(530)121-5744,Universal Hardware Graphics,Operations Manager,2019-05-27,266277,Galatia Collier
3,Hanna,Mcpherson,17742,Lairdsville,PA,Armando.Pinson@nulladolore.tv,(312)374-7935,General Contract Vision,Manager Bookkeeping,2019-04-14,482483,Missouri Majorca
4,Fannie,Zimmer,11386,Ridgewood,NY,Tasha.Teague@autemnostrud.tv,(605)747-9705,Data Alpha Solutions,Insurance Customer Service Representative 2,2019-05-14,723578,Hoboken Marcia
5,Bruce,Lombardo,94280,Sacramento,CA,Raquel.Echevarria@ipsummolestie.org,(516)584-1674,Venture Bell Consulting,Financial Analysis Supervisor,2019-04-05,518706,Saskatoon Hester
6,Leonardo,Cornejo,46056,Markleville,IN,Virgie.Chan@volutpathendrerit.gov,(585)996-4211,Solutions Network Star,Stonecutter,2019-05-17,275131,Foss Malay
7,Retha,Nance,95950,Grimes,CA,T.Underwood@consequatveleuismod.tv,(660)380-8100,Adventure Construction Architecture,Manager Risk,2019-06-22,384175,Shattuck Wooster
8,Dean,Thrasher,12817,Chestertown,NY,G.Gage@erosut.eu,(918)625-8745,General Star,Media Manager,2019-04-18,138456,Beethoven Vatican
9,Janelle,Dion,49707,Alpena,MI,Y.Thornhill@consequatte.net,(919)485-1702,Industries Studio East,Loan Officer Commercial,2019-05-27,239996,Sylvester Accra
10,Francisco,Cornejo,34208,Bradenton,FL,Jess.Funk@quiwisi.us,(667)195-8410,Atlantic Telecom Galaxy,Drafter Design,2019-04-23,625141,Pusan Austin
11,Lydia,Broderick,95120,San Jose,CA,S.Fender@nibhad.us,(862)450-3842,Architecture Federated Future,Carpenter (General/Maintenance),2019-04-25,682099,Netherlands Cummins
12,Graig,Dyer,52731,Charlotte,IA,Nanette.Wiley@adnulla.edu,(802)263-1751,Virtual Galaxy Digital,Supervisor Account,2019-06-13,450832,Einsteinian SUNY
13,Marlin,Mcvey,75792,Winona,TX,Kaye@feugaitte.com,(504)941-4609,Solutions Net,Head of Housekeeping,2019-06-10,210026,Ft Ashley
14,Wilmer,Cady,13643,Great Bend,NY,Alva@molestieet.edu,(636)575-8129,Vision Hardware East,Fiction Writer,2019-05-15,688258,U.S.A Elisabeth
15,Wilfredo,Ness,68766,Page,NE,Rosalia.Vallejo@commododolore.gov,(859)846-7178,Speed Vision North,Assembler 1 Product,2019-06-13,392975,Atchison Benedictine
16,Whitney,Monk,75313,Dallas,TX,Hugh.Chism@essevulputate.gov,(509)798-4106,Pacific Building North,Mechanic Diesel,2019-05-22,225665,Frenchmen Barnett
17,Herman,Peck,16692,Westover,PA,S.Dye@autemblandit.us,(304)396-2473,Future Data,Hardware Engineer Computer,2019-06-28,647827,Britten Philistine
18,Eula,Bustamante,93720,Fresno,CA,Andria.Mullis@zzriltincidunt.tv,(405)313-8059,Hill Omega Construction,Engineer Agricultural,2019-04-19,793932,Saxon Sheila
19,Elma,Fulton,52161,Ossian,IA,M.Packer@feugaiteu.edu,(301)883-1648,Universal Building,Telecommunications Analyst,2019-06-03,123764,Weyerhauser Natalie
20,Ernestina,Corbett,01452,Hubbardston,MA,Bernie@molestieex.info,(631)791-7891,Venture Universal,Redcap,2019-06-18,253290,Caribbean Reich
21,Reina,Nolan,74159,Tulsa,OK,A.Sepulveda@veniamdelenitaugue.eu,(937)218-9792,Systems Net,Computer Data Control Supervisor,2019-04-23,530284,Aries Henri
22,Arlen,Custer,69027,Enders,NE,Bess.Mosby@facilisivero.org,(612)323-7289,Industries Omega Digital,Barber or Beauty Shop Manager,2019-06-05,120900,Pandora Marion
23,Yvonne,Wiles,37079,Indian Mound,TN,N.Hare@doloreea.info,(503)158-3563,Federated Application Atlantic,Sales Estimator,2019-05-11,185026,Alphonse Aleutian
24,Hiram,Linkous,85325,Bouse,AZ,Brendon.Boyd@lobortisaccumsan.gov,(217)851-4791,Systems Innovation,Medical Technologist,2019-04-07,788035,Byrd Nathaniel
25,Marian,Faison,28438,Evergreen,NC,Lara@feugiatdiam.com,(312)140-3427,Telecom Alpha Star,Assistant Sales,2019-04-10,644152,Carlton Britten
26,Edwin,Samples,14231,Buffalo,NY,R.Biddle@nullaex.org,(708)966-8993,Research Industries Resource,Medical Services Chiropractor,2019-05-17,636323,Sommerfeld Nazarene
27,Emmett,Ashby,95322,Gustine,CA,Dolores@erathendrerit.gov,(904)627-6627,Adventure Research,Manager Benefits,2019-04-16,509988,Cluj Crestview
28,Naomi,Lowery,78130,New Braunfels,TX,Thomas.Walter@ullamcorperqui.org,(507)208-5788,Technology Architecture,Fashion Illustrator,2019-06-10,369799,Holocene Liechtenstein
29,Loretta,Christensen,29928,Hilton Head Island,SC,S.Dibble@laoreeteuismod.com,(870)208-4582,Interactive Technology Direct,Buyer Grocery,2019-04-06,454609,Johannesburg Thalia
